start=new Date('2022-04-18T00:00:00.000Z').valueOf();
sats=[{"APOAPSIS":"548.386","NORAD_CAT_ID":"48366","LAUNCH_DATE":"2021-05-04","TIME_SYSTEM":"UTC","REV_AT_EPOCH":"5285","SEMIMAJOR_AXIS":"6925.407","MEAN_MOTION":"15.06380803","BSTAR":"0.00039038000000","TLE_LINE2":"2 48366  53.0557 254.5959 0001608  69.2999 290.8163 15.06380803 52855","CENTER_NAME":"EARTH","COUNTRY_CODE":"US","PERIOD":"95.593","REF_FRAME":"TEME","MEAN_MOTION_DOT":"0.00005535","MEAN_ANOMALY":"290.8163","PERIAPSIS":"546.159","OBJECT_ID":"2021-038P","MEAN_MOTION_DDOT":"0.0000000000000","ECCENTRICITY":"0.00016080","ELEMENT_SET_NO":"999","GP_ID":"201495965","DECAY_DATE":null,"FILE":"3405839","MEAN_ELEMENT_THEORY":"SGP4","INCLINATION":"53.0557","SITE":"AFETR","CLASSIFICATION_TYPE":"U","OBJECT_NAME":"STARLINK-2631","RCS_SIZE":"LARGE","EPHEMERIS_TYPE":"0","OBJECT_TYPE":"PAYLOAD","ARG_OF_PERICENTER":"69.2999","RA_OF_ASC_NODE":"254.5959","TLE_LINE1":"1 48366U 21038P   22107.82946343  .00005535  00000-0  39038-3 0  9996","EPOCH":"2022-04-17T19:54:25.640352"},{"REF_FRAME":"TEME","MEAN_MOTION_DOT":"0.00000844","COUNTRY_CODE":"US","PERIOD":"95.593","CENTER_NAME":"EARTH","TLE_LINE2":"2 48367  53.0555 254.6243 0001651  60.2112 299.9041 15.06388853 52855","BSTAR":"0.00007557900000","MEAN_MOTION":"15.06388853","REV_AT_EPOCH":"5285","SEMIMAJOR_AXIS":"6925.383","APOAPSIS":"548.391","NORAD_CAT_ID":"48367","TIME_SYSTEM":"UTC","LAUNCH_DATE":"2021-05-04","TLE_LINE1":"1 48367U 21038Q   22107.82577322  .00000844  00000-0  75579-4 0  9993","EPOCH":"2022-04-17T19:49:06.806208","EPHEMERIS_TYPE":"0","RA_OF_ASC_NODE":"254.6243","ARG_OF_PERICENTER":"60.2112","OBJECT_TYPE":"PAYLOAD","OBJECT_NAME":"STARLINK-2643","RCS_SIZE":"LARGE","SITE":"AFETR","CLASSIFICATION_TYPE":"U","FILE":"3405839","DECAY_DATE":null,"GP_ID":"201495722","INCLINATION":"53.0555","MEAN_ELEMENT_THEORY":"SGP4","ELEMENT_SET_NO":"999","OBJECT_ID":"2021-038Q","ECCENTRICITY":"0.00016510","MEAN_MOTION_DDOT":"0.0000000000000","MEAN_ANOMALY":"299.9041","PERIAPSIS":"546.104"},{"CENTER_NAME":"EARTH","TLE_LINE2":"2 48368  53.0547 254.5269 0001743  52.4423 307.6724 15.06394302 52866","MEAN_MOTION_DOT":"0.00006006","REF_FRAME":"TEME","PERIOD":"95.593","COUNTRY_CODE":"US","REV_AT_EPOCH":"5286","SEMIMAJOR_AXIS":"6925.366","TIME_SYSTEM":"UTC","LAUNCH_DATE":"2021-05-04","NORAD_CAT_ID":"48368","APOAPSIS":"548.438","BSTAR":"0.00042182000000","MEAN_MOTION":"15.06394302","RCS_SIZE":"LARGE","OBJECT_NAME":"STARLINK-2623","CLASSIFICATION_TYPE":"U","SITE":"AFETR","TLE_LINE1":"1 48368U 21038R   22107.84325435  .00006006  00000-0  42182-3 0  9991","EPOCH":"2022-04-17T20:14:17.175840","OBJECT_TYPE":"PAYLOAD","RA_OF_ASC_NODE":"254.5269","ARG_OF_PERICENTER":"52.4423","EPHEMERIS_TYPE":"0","MEAN_MOTION_DDOT":"0.0000000000000","ECCENTRICITY":"0.00017430","OBJECT_ID":"2021-038R","PERIAPSIS":"546.024","MEAN_ANOMALY":"307.6724","MEAN_ELEMENT_THEORY":"SGP4","INCLINATION":"53.0547","GP_ID":"201494964","FILE":"3405839","DECAY_DATE":null,"ELEMENT_SET_NO":"999"},{"COUNTRY_CODE":"US","PERIOD":"95.592","REF_FRAME":"TEME","MEAN_MOTION_DOT":"0.00026435","TLE_LINE2":"2 48369  53.0560 254.6277 0001750  46.6626 313.4509 15.06409152 52855","CENTER_NAME":"EARTH","MEAN_MOTION":"15.06409152","BSTAR":"0.00178650000000","NORAD_CAT_ID":"48369","APOAPSIS":"548.397","LAUNCH_DATE":"2021-05-04","TIME_SYSTEM":"UTC","REV_AT_EPOCH":"5285","SEMIMAJOR_AXIS":"6925.321","EPHEMERIS_TYPE":"0","OBJECT_TYPE":"PAYLOAD","RA_OF_ASC_NODE":"254.6277","ARG_OF_PERICENTER":"46.6626","EPOCH":"2022-04-17T19:43:47.720640","TLE_LINE1":"1 48369U 21038S   22107.82208010  .00026435  00000-0  17865-2 0  9996","SITE":"AFETR","CLASSIFICATION_TYPE":"U","OBJECT_NAME":"STARLINK-2641","RCS_SIZE":"LARGE","ELEMENT_SET_NO":"999","GP_ID":"201495214","FILE":"3405839","DECAY_DATE":null,"MEAN_ELEMENT_THEORY":"SGP4","INCLINATION":"53.0560","MEAN_ANOMALY":"313.4509","PERIAPSIS":"545.974","OBJECT_ID":"2021-038S","MEAN_MOTION_DDOT":"0.0000000000000","ECCENTRICITY":"0.00017500"},{"CLASSIFICATION_TYPE":"U","SITE":"AFETR","RCS_SIZE":"LARGE","OBJECT_NAME":"STARLINK-2621","RA_OF_ASC_NODE":"254.9449","ARG_OF_PERICENTER":"54.2250","OBJECT_TYPE":"PAYLOAD","EPHEMERIS_TYPE":"0","TLE_LINE1":"1 48370U 21038T   22107.75205076  .00000290  00000-0  38386-4 0  9993","EPOCH":"2022-04-17T18:02:57.185664","PERIAPSIS":"546.187","MEAN_ANOMALY":"305.8881","ECCENTRICITY":"0.00015230","MEAN_MOTION_DDOT":"0.0000000000000","OBJECT_ID":"2021-038T","ELEMENT_SET_NO":"999","INCLINATION":"53.0553","MEAN_ELEMENT_THEORY":"SGP4","DECAY_DATE":null,"FILE":"3405839","GP_ID":"201495474","TLE_LINE2":"2 48370  53.0553 254.9449 0001523  54.2250 305.8881 15.06390658 52846","CENTER_NAME":"EARTH","PERIOD":"95.593","COUNTRY_CODE":"US","MEAN_MOTION_DOT":"0.00000290","REF_FRAME":"TEME","TIME_SYSTEM":"UTC","LAUNCH_DATE":"2021-05-04","NORAD_CAT_ID":"48370","APOAPSIS":"548.297","REV_AT_EPOCH":"5284","SEMIMAJOR_AXIS":"6925.377","MEAN_MOTION":"15.06390658","BSTAR":"0.00003838600000"},{"MEAN_MOTION_DOT":"0.00010752","REF_FRAME":"TEME","PERIOD":"95.592","COUNTRY_CODE":"US","CENTER_NAME":"EARTH","TLE_LINE2":"2 48371  53.0541 254.6748 0001780  62.0182 298.0987 15.06397391 52851","BSTAR":"0.00073967000000","MEAN_MOTION":"15.06397391","REV_AT_EPOCH":"5285","SEMIMAJOR_AXIS":"6925.357","TIME_SYSTEM":"UTC","LAUNCH_DATE":"2021-05-04","APOAPSIS":"548.454","NORAD_CAT_ID":"48371","TLE_LINE1":"1 48371U 21038U   22107.81471112  .00010752  00000-0  73967-3 0  9994","EPOCH":"2022-04-17T19:33:11.040768","ARG_OF_PERICENTER":"62.0182","RA_OF_ASC_NODE":"254.6748","OBJECT_TYPE":"PAYLOAD","EPHEMERIS_TYPE":"0","RCS_SIZE":"LARGE","OBJECT_NAME":"STARLINK-2589","CLASSIFICATION_TYPE":"U","SITE":"AFETR","INCLINATION":"53.0541","MEAN_ELEMENT_THEORY":"SGP4","DECAY_DATE":null,"FILE":"3405839","GP_ID":"201496214","ELEMENT_SET_NO":"999","ECCENTRICITY":"0.00017800","MEAN_MOTION_DDOT":"0.0000000000000","OBJECT_ID":"2021-038U","PERIAPSIS":"545.989","MEAN_ANOMALY":"298.0987"},{"REV_AT_EPOCH":"5285","SEMIMAJOR_AXIS":"6925.319","TIME_SYSTEM":"UTC","LAUNCH_DATE":"2021-05-04","NORAD_CAT_ID":"48372","APOAPSIS":"548.472","BSTAR":"-0.00003648200000","MEAN_MOTION":"15.06409525","CENTER_NAME":"EARTH","TLE_LINE2":"2 48372  53.0546 254.6911 0001860  50.3224 309.7929 15.06409525 52854","MEAN_MOTION_DOT":"-0.00000825","REF_FRAME":"TEME","PERIOD":"95.592","COUNTRY_CODE":"US","MEAN_MOTION_DDOT":"0.0000000000000","ECCENTRICITY":"0.00018600","OBJECT_ID":"2021-038V","PERIAPSIS":"545.896","MEAN_ANOMALY":"309.7929","MEAN_ELEMENT_THEORY":"SGP4","INCLINATION":"53.0546","GP_ID":"201494473","FILE":"3405839","DECAY_DATE":null,"ELEMENT_SET_NO":"999","RCS_SIZE":"LARGE","OBJECT_NAME":"STARLINK-2572","CLASSIFICATION_TYPE":"U","SITE":"AFETR","TLE_LINE1":"1 48372U 21038V   22107.81101170 -.00000825  00000-0 -36482-4 0  9993","EPOCH":"2022-04-17T19:27:51.410880","OBJECT_TYPE":"PAYLOAD","ARG_OF_PERICENTER":"50.3224","RA_OF_ASC_NODE":"254.6911","EPHEMERIS_TYPE":"0"},{"MEAN_ELEMENT_THEORY":"SGP4","INCLINATION":"53.0528","GP_ID":"201494723","FILE":"3405839","DECAY_DATE":null,"ELEMENT_SET_NO":"999","MEAN_MOTION_DDOT":"0.0000000000000","ECCENTRICITY":"0.00014960","OBJECT_ID":"2021-038W","PERIAPSIS":"546.171","MEAN_ANOMALY":"283.3636","TLE_LINE1":"1 48373U 21038W   22107.80733845  .00004539  00000-0  32341-3 0  9996","EPOCH":"2022-04-17T19:22:34.042080","OBJECT_TYPE":"PAYLOAD","RA_OF_ASC_NODE":"254.7076","ARG_OF_PERICENTER":"76.7520","EPHEMERIS_TYPE":"0","RCS_SIZE":"LARGE","OBJECT_NAME":"STARLINK-2609","CLASSIFICATION_TYPE":"U","SITE":"AFETR","BSTAR":"0.00032341000000","MEAN_MOTION":"15.06402083","REV_AT_EPOCH":"5285","SEMIMAJOR_AXIS":"6925.342","LAUNCH_DATE":"2021-05-04","TIME_SYSTEM":"UTC","NORAD_CAT_ID":"48373","APOAPSIS":"548.243","MEAN_MOTION_DOT":"0.00004539","REF_FRAME":"TEME","PERIOD":"95.592","COUNTRY_CODE":"US","CENTER_NAME":"EARTH","TLE_LINE2":"2 48373  53.0528 254.7076 0001496  76.7520 283.3636 15.06402083 52858"},{"OBJECT_TYPE":"PAYLOAD","ARG_OF_PERICENTER":"66.7011","RA_OF_ASC_NODE":"255.0170","EPHEMERIS_TYPE":"0","EPOCH":"2022-04-17T17:41:43.132128","TLE_LINE1":"1 48374U 21038X   22107.73730477  .00002171  00000-0  16462-3 0  9993","CLASSIFICATION_TYPE":"U","SITE":"AFETR","RCS_SIZE":"LARGE","OBJECT_NAME":"STARLINK-2604","ELEMENT_SET_NO":"999","MEAN_ELEMENT_THEORY":"SGP4","INCLINATION":"53.0540","GP_ID":"201495966","FILE":"3405839","DECAY_DATE":null,"PERIAPSIS":"546.153","MEAN_ANOMALY":"293.4143","MEAN_MOTION_DDOT":"0.0000000000000","ECCENTRICITY":"0.00015740","OBJECT_ID":"2021-038X","PERIOD":"95.593","COUNTRY_CODE":"US","MEAN_MOTION_DOT":"0.00002171","REF_FRAME":"TEME","TLE_LINE2":"2 48374  53.0540 255.0170 0001574  66.7011 293.4143 15.06390264 52844","CENTER_NAME":"EARTH","MEAN_MOTION":"15.06390264","BSTAR":"0.00016462000000","LAUNCH_DATE":"2021-05-04","TIME_SYSTEM":"UTC","NORAD_CAT_ID":"48374","APOAPSIS":"548.333","SEMIMAJOR_AXIS":"6925.378","REV_AT_EPOCH":"5284"},{"CENTER_NAME":"EARTH","TLE_LINE2":"2 48375  53.0547 255.3323 0001543  58.1691 301.9448 15.06381150 52836","REF_FRAME":"TEME","MEAN_MOTION_DOT":"-0.00000371","COUNTRY_CODE":"US","PERIOD":"95.593","SEMIMAJOR_AXIS":"6925.406","REV_AT_EPOCH":"5283","NORAD_CAT_ID":"48375","APOAPSIS":"548.340","TIME_SYSTEM":"UTC","LAUNCH_DATE":"2021-05-04","BSTAR":"-0.00000598700000","MEAN_MOTION":"15.06381150","OBJECT_NAME":"STARLINK-2603","RCS_SIZE":"LARGE","SITE":"AFETR","CLASSIFICATION_TYPE":"U","TLE_LINE1":"1 48375U 21038Y   22107.66727277 -.00000371  00000-0 -59870-5 0  9994","EPOCH":"2022-04-17T16:00:52.367328","EPHEMERIS_TYPE":"0","ARG_OF_PERICENTER":"58.1691","RA_OF_ASC_NODE":"255.3323","OBJECT_TYPE":"PAYLOAD","OBJECT_ID":"2021-038Y","ECCENTRICITY":"0.00015430","MEAN_MOTION_DDOT":"0.0000000000000","MEAN_ANOMALY":"301.9448","PERIAPSIS":"546.203","DECAY_DATE":null,"FILE":"3405839","GP_ID":"201495723","INCLINATION":"53.0547","MEAN_ELEMENT_THEORY":"SGP4","ELEMENT_SET_NO":"999"}];
